[{"OBJECT_NAME":"SAUDISAT 1C (SO-50)","OBJECT_ID":"2002-058C","EPOCH":"2026-03-09T14:49:05.437056","MEAN_MOTION":14.82783142,"ECCENTRICITY":0.0075248,"INCLINATION":64.5524,"RA_OF_ASC_NODE":76.9957,"ARG_OF_PERICENTER":280.7497,"MEAN_ANOMALY":78.5144,"EPHEMERIS_TYPE":0,"CLASSIFICATION_TYPE":"U","NORAD_CAT_ID":27607,"ELEMENT_SET_NO":999,"REV_AT_EPOCH":24969,"BSTAR":0.00027919,"MEAN_MOTION_DOT":2.222e-5,"MEAN_MOTION_DDOT":0},{"OBJECT_NAME":"FENGYUN 1C DEB","OBJECT_ID":"1999-025DLY","EPOCH":"2026-03-05T07:10:59.307456","MEAN_MOTION":14.61912395,"ECCENTRICITY":0.0027574,"INCLINATION":98.6971,"RA_OF_ASC_NODE":188.7569,"ARG_OF_PERICENTER":114.0647,"MEAN_ANOMALY":246.3442,"EPHEMERIS_TYPE":0,"CLASSIFICATION_TYPE":"U","NORAD_CAT_ID":35144,"ELEMENT_SET_NO":999,"REV_AT_EPOCH":66418,"BSTAR":0.0036188,"MEAN_MOTION_DOT":0.000182,"MEAN_MOTION_DDOT":0}]
